NORAD_CAT_ID,OBJECT_NAME,OBJECT_TYPE,EPOCH,MEAN_MOTION,ECCENTRICITY,INCLINATION,RA_OF_ASC_NODE,ARG_OF_PERICENTER,MEAN_ANOMALY,BSTAR,MEAN_MOTION_DOT,MEAN_MOTION_DDOT,TLE_LINE0,TLE_LINE1,TLE_LINE2,SEMIMAJOR_AXIS,PERIOD,APOGEE,PERIGEE,DECAYED
52860.0,STARLINK-4191,PAYLOAD,2024-06-02 16:55:30,15.08830866,0.0001459,53.2187,39.5685,94.929,265.1868,6.3825e-06,-1.86e-06,0.0,0 STARLINK-4191,1 52860U 22062AG  24154.70521669 -.00000186  00000-0  63825-5 0  9990,2 52860  53.2187  39.5685 0001459  94.9290 265.1868 15.08830866109042,6917.908,95.438,540.783,538.764,0.0
52860.0,STARLINK-4191,PAYLOAD,2024-06-02 23:17:03,15.0883294,0.0001424,53.2188,38.3805,93.3181,266.7974,3.5416e-05,2.76e-06,0.0,0 STARLINK-4191,1 52860U 22062AG  24154.97017605  .00000276  00000-0  35416-4 0  9992,2 52860  53.2188  38.3805 0001424  93.3181 266.7974 15.08832940108597,6917.902,95.438,540.752,538.782,0.0
52860.0,STARLINK-4191,PAYLOAD,2024-06-03 08:49:21,15.08841106,0.0001471,53.2193,36.5965,92.9767,267.1394,4.1096e-05,3.66e-06,0.0,0 STARLINK-4191,1 52860U 22062AG  24155.36761275  .00000366  00000-0  41096-4 0  9996,2 52860  53.2193  36.5965 0001471  92.9767 267.1394 15.08841106109144,6917.877,95.437,540.76,538.724,0.0
52860.0,STARLINK-4191,PAYLOAD,2024-06-03 23:07:49,15.08845029,0.0001374,53.2189,33.9199,95.0232,265.0917,0.0001711,2.437e-05,0.0,0 STARLINK-4191,1 52860U 22062AG  24155.96377034  .00002437  00000-0  17110-3 0  9998,2 52860  53.2189  33.9199 0001374  95.0232 265.0917 15.08845029108743,6917.865,95.437,540.681,538.78,0.0
52860.0,STARLINK-4191,PAYLOAD,2024-06-04 08:40:08,15.08848555,0.0001371,53.2184,32.1324,76.8887,283.2258,0.00021888,3.198e-05,0.0,0 STARLINK-4191,1 52860U 22062AG  24156.36120855  .00003198  00000-0  21888-3 0  9992,2 52860  53.2184  32.1324 0001371  76.8887 283.2258 15.08848555108803,6917.854,95.437,540.668,538.771,0.0
52860.0,STARLINK-4191,PAYLOAD,2024-06-04 22:58:38,15.08806302,0.0001782,53.2198,29.4563,75.2341,284.8848,0.0011138,0.00017466,0.0,0 STARLINK-4191,1 52860U 22062AG  24156.95739393  .00017466  00000-0  11138-2 0  9999,2 52860  53.2198  29.4563 0001782  75.2341 284.8848 15.08806302108891,6917.983,95.44,541.081,538.616,0.0
52860.0,STARLINK-4191,PAYLOAD,2024-06-05 00:34:00,15.08843591,0.0001513,53.219,29.1591,64.0807,296.0341,8.489e-05,1.063e-05,0.0,0 STARLINK-4191,1 52860U 22062AG  24157.02361185  .00001063  00000-0  84890-4 0  9991,2 52860  53.2190  29.1591 0001513  64.0807 296.0341 15.08843591109396,6917.869,95.437,540.781,538.688,0.0
52860.0,STARLINK-4191,PAYLOAD,2024-06-05 08:30:55,15.08837215,0.0001305,53.2202,27.6717,77.4418,282.672,-3.5359e-05,-8.51e-06,0.0,0 STARLINK-4191,1 52860U 22062AG  24157.35481338 -.00000851  00000-0 -35359-4 0  9992,2 52860  53.2202  27.6717 0001305  77.4418 282.6720 15.08837215108957,6917.889,95.438,540.657,538.851,0.0
52860.0,STARLINK-4191,PAYLOAD,2024-06-07 00:15:34,15.08846216,0.0001441,53.2188,20.2377,84.863,275.2527,0.00011244,1.502e-05,0.0,0 STARLINK-4191,1 52860U 22062AG  24159.01081171  .00001502  00000-0  11244-3 0  9996,2 52860  53.2188  20.2377 0001441  84.8630 275.2527 15.08846216109696,6917.861,95.437,540.723,538.73,0.0
52860.0,STARLINK-4191,PAYLOAD,2024-06-07 08:12:29,15.08858769,7.22e-05,53.2182,18.7541,93.0555,267.052,-0.00017549,-3.081e-05,0.0,0 STARLINK-4191,1 52860U 22062AG  24159.34200313 -.00003081  00000-0 -17549-3 0  9993,2 52860  53.2182  18.7541 0000722  93.0555 267.0520 15.08858769109748,6917.823,95.436,540.187,539.189,0.0
52860.0,STARLINK-4191,PAYLOAD,2024-06-07 20:55:35,15.08839869,0.000133,53.2176,16.3757,87.7865,272.3279,6.9826e-05,8.24e-06,0.0,0 STARLINK-4191,1 52860U 22062AG  24159.87193507  .00000824  00000-0  69826-4 0  9993,2 52860  53.2176  16.3757 0001330  87.7865 272.3279 15.08839869109823,6917.881,95.438,540.666,538.826,0.0
52860.0,STARLINK-4191,PAYLOAD,2024-06-08 14:24:50,15.08833263,0.000156,53.2141,13.1003,111.4242,248.6917,7.3732e-05,8.85e-06,0.0,0 STARLINK-4191,1 52860U 22062AG  24160.60057978  .00000885  00000-0  73732-4 0  9995,2 52860  53.2141  13.1003 0001560 111.4242 248.6917 15.08833263109448,6917.901,95.438,540.845,538.687,0.0
52860.0,STARLINK-4191,PAYLOAD,2024-06-08 20:46:22,15.08840038,0.0001991,53.2163,11.9118,97.2422,262.8797,0.00016552,2.347e-05,0.0,0 STARLINK-4191,1 52860U 22062AG  24160.86553874  .00002347  00000-0  16552-3 0  9990,2 52860  53.2163  11.9118 0001991  97.2422 262.8797 15.08840038109480,6917.88,95.438,541.123,538.368,0.0
52860.0,STARLINK-4191,PAYLOAD,2024-06-08 23:57:08,15.08839187,0.0001302,53.2189,11.3168,98.8996,261.2143,0.00015441,2.17e-05,0.0,0 STARLINK-4191,1 52860U 22062AG  24160.99801834  .00002170  00000-0  15441-3 0  9996,2 52860  53.2189  11.3168 0001302  98.8996 261.2143 15.08839187109993,6917.883,95.438,540.649,538.847,0.0
52860.0,STARLINK-4191,PAYLOAD,2024-06-09 20:37:10,15.08829599,0.0001309,53.2189,7.4521,94.6669,265.4473,6.0759e-05,6.79e-06,0.0,0 STARLINK-4191,1 52860U 22062AG  24161.85914841  .00000679  00000-0  60759-4 0  9990,2 52860  53.2189   7.4521 0001309  94.6669 265.4473 15.08829599110125,6917.912,95.438,540.683,538.872,0.0
52860.0,STARLINK-4191,PAYLOAD,2024-06-10 06:09:28,15.08838605,0.0001405,53.2195,5.667,96.2052,263.91,0.00014806,2.069e-05,0.0,0 STARLINK-4191,1 52860U 22062AG  24162.25658266  .00002069  00000-0  14806-3 0  9997,2 52860  53.2195   5.6670 0001405  96.2052 263.9100 15.08838605110182,6917.885,95.438,540.722,538.778,0.0
52860.0,STARLINK-4191,PAYLOAD,2024-06-10 20:27:56,15.08848288,0.0001347,53.2189,2.9936,88.0946,272.0201,0.00020969,3.052e-05,0.0,0 STARLINK-4191,1 52860U 22062AG  24162.85273712  .00003052  00000-0  20969-3 0  9992,2 52860  53.2189   2.9936 0001347  88.0946 272.0201 15.08848288109781,6917.855,95.437,540.652,538.788,0.0
52860.0,STARLINK-4191,PAYLOAD,2024-06-11 06:00:15,15.08848716,9.66e-05,53.2172,1.2092,76.583,283.527,5.7328e-05,6.25e-06,0.0,0 STARLINK-4191,1 52860U 22062AG  24163.25017735  .00000625  00000-0  57328-4 0  9991,2 52860  53.2172   1.2092 0000966  76.5830 283.5270 15.08848716109844,6917.854,95.437,540.387,539.05,0.0
52860.0,STARLINK-4191,PAYLOAD,2024-06-12 05:51:02,15.08842186,0.0001199,53.2181,356.7515,98.6061,261.5067,7.9116e-05,9.72e-06,0.0,0 STARLINK-4191,1 52860U 22062AG  24164.24378294  .00000972  00000-0  79116-4 0  9995,2 52860  53.2181 356.7515 0001199  98.6061 261.5067 15.08842186110489,6917.874,95.437,540.568,538.909,0.0
52860.0,STARLINK-4191,PAYLOAD,2024-06-12 21:44:54,15.08836804,0.0001591,53.2205,353.7742,87.27,272.8475,4.5585e-05,4.37e-06,0.0,0 STARLINK-4191,1 52860U 22062AG  24164.90618847  .00000437  00000-0  45585-4 0  9998,2 52860  53.2205 353.7742 0001591  87.2700 272.8475 15.08836804110090,6917.89,95.438,540.856,538.655,0.0
52860.0,STARLINK-4191,PAYLOAD,2024-06-13 05:41:50,15.08840867,0.0001327,53.2186,352.2903,89.6744,270.44,1.8192e-05,2e-08,0.0,0 STARLINK-4191,1 52860U 22062AG  24165.23738617  .00000002  00000-0  18192-4 0  9995,2 52860  53.2186 352.2903 0001327  89.6744 270.4400 15.08840867110144,6917.878,95.437,540.661,538.825,0.0
52860.0,STARLINK-4191,PAYLOAD,2024-06-13 20:00:17,15.08850272,0.0001359,53.2191,349.6128,93.513,266.6017,5.2669e-05,5.51e-06,0.0,0 STARLINK-4191,1 52860U 22062AG  24165.83353877  .00000551  00000-0  52669-4 0  9998,2 52860  53.2191 349.6128 0001359  93.5130 266.6017 15.08850272110239,6917.849,95.437,540.654,538.774,0.0
52860.0,STARLINK-4191,PAYLOAD,2024-06-14 11:54:09,15.08834152,0.0001609,53.2196,346.6388,83.5707,276.5469,9.4172e-05,1.211e-05,0.0,0 STARLINK-4191,1 52860U 22062AG  24166.49594906  .00001211  00000-0  94172-4 0  9990,2 52860  53.2196 346.6388 0001609  83.5707 276.5469 15.08834152110337,6917.898,95.438,540.876,538.65,0.0
52860.0,STARLINK-4191,PAYLOAD,2024-06-14 18:15:42,15.08835991,0.0001367,53.2184,345.4481,86.7349,273.3799,0.00010918,1.45e-05,0.0,0 STARLINK-4191,1 52860U 22062AG  24166.76090714  .00001450  00000-0  10918-3 0  9998,2 52860  53.2184 345.4481 0001367  86.7349 273.3799 15.08835991110370,6917.893,95.438,540.703,538.812,0.0
52860.0,STARLINK-4191,PAYLOAD,2024-06-15 14:55:42,15.08846556,0.0001173,53.2184,341.5834,87.5044,272.6083,7.3562e-05,8.83e-06,0.0,0 STARLINK-4191,1 52860U 22062AG  24167.62202051  .00000883  00000-0  73562-4 0  9997,2 52860  53.2184 341.5834 0001173  87.5044 272.6083 15.08846556110507,6917.86,95.437,540.537,538.914,0.0
52860.0,STARLINK-4191,PAYLOAD,2024-06-15 18:06:28,15.08849797,0.0001293,53.2187,340.9881,90.6363,269.4778,0.00011777,1.587e-05,0.0,0 STARLINK-4191,1 52860U 22062AG  24167.75449752  .00001587  00000-0  11777-3 0  9993,2 52860  53.2187 340.9881 0001293  90.6363 269.4778 15.08849797110524,6917.85,95.437,540.61,538.821,0.0
52860.0,STARLINK-4191,PAYLOAD,2024-06-16 14:46:28,15.0885054,0.0001553,53.2178,337.124,102.5566,257.56,0.00017961,2.572e-05,0.0,0 STARLINK-4191,1 52860U 22062AG  24168.61561204  .00002572  00000-0  17961-3 0  9992,2 52860  53.2178 337.1240 0001553 102.5566 257.5600 15.08850540110652,6917.848,95.437,540.788,538.639,0.0
52860.0,STARLINK-4191,PAYLOAD,2024-06-16 21:08:00,15.08863403,0.0001408,53.2188,335.9327,94.3605,265.7548,0.00025932,3.844e-05,0.0,0 STARLINK-4191,1 52860U 22062AG  24168.88056226  .00003844  00000-0  25932-3 0  9994,2 52860  53.2188 335.9327 0001408  94.3605 265.7548 15.08863403110694,6917.809,95.436,540.648,538.7,0.0
52860.0,STARLINK-4191,PAYLOAD,2024-06-17 17:48:03,15.08826845,0.0001047,53.2179,332.0666,67.6663,292.444,-0.0002119,-3.657e-05,0.0,0 STARLINK-4191,1 52860U 22062AG  24169.74170731 -.00003657  00000-0 -21190-3 0  9994,2 52860  53.2179 332.0666 0001047  67.6663 292.4440 15.08826845111311,6917.921,95.438,540.51,539.061,0.0
52860.0,STARLINK-4191,PAYLOAD,2024-06-18 14:28:03,15.08849125,0.0001148,53.2189,328.2022,77.3379,282.7741,-9.7829e-06,-4.44e-06,0.0,0 STARLINK-4191,1 52860U 22062AG  24170.60282100 -.00000444  00000-0 -97829-5 0  9990,2 52860  53.2189 328.2022 0001148  77.3379 282.7741 15.08849125110950,6917.852,95.437,540.512,538.923,0.0
